[{"OBJECT_NAME":"STARLINK-31042","OBJECT_ID":"2024-005M","EPOCH":"2026-03-09T17:50:25.214496","MEAN_MOTION":15.2674208,"ECCENTRICITY":7.233e-5,"INCLINATION":43.0003,"RA_OF_ASC_NODE":219.2871,"ARG_OF_PERICENTER":275.9861,"MEAN_ANOMALY":84.0908,"EPHEMERIS_TYPE":0,"CLASSIFICATION_TYPE":"U","NORAD_CAT_ID":58739,"ELEMENT_SET_NO":999,"REV_AT_EPOCH":12045,"BSTAR":8.5254954e-5,"MEAN_MOTION_DOT":2.028e-5,"MEAN_MOTION_DDOT":0},{"OBJECT_NAME":"OBJECT C","OBJECT_ID":"2025-234C","EPOCH":"2026-03-09T22:07:06.538080","MEAN_MOTION":15.23160401,"ECCENTRICITY":0.00161414,"INCLINATION":97.4354,"RA_OF_ASC_NODE":138.2572,"ARG_OF_PERICENTER":142.8194,"MEAN_ANOMALY":217.4163,"EPHEMERIS_TYPE":0,"CLASSIFICATION_TYPE":"U","NORAD_CAT_ID":66055,"ELEMENT_SET_NO":999,"REV_AT_EPOCH":2157,"BSTAR":0.00030176965,"MEAN_MOTION_DOT":7.085e-5,"MEAN_MOTION_DDOT":0}]
